#aV2014 10 11  0  0  0.00000000     288 DD+AD WGS84 FIT  NGA
## 1813 518400.00000000   300.00000000 56941 0.0000000000000
+   31     1  2  4  5  6  7  8  9 10 11 12 13 14 15 16 17 18
+         19 20 21 22 23 24 25 26 27 28 29 30 31 32  0  0  0
+          0  0  0  0  0  0  0  0  0  0  0  0  0  0  0  0  0
+          0  0  0  0  0  0  0  0  0  0  0  0  0  0  0  0  0
+          0  0  0  0  0  0  0  0  0  0  0  0  0  0  0  0  0
++         2  2  2  2  2  2  2  2  2  2  2  2  2  2  2  2  2
++         2  2  2  2  2  2  2  2  2  2  2  2  2  2  0  0  0
++         0  0  0  0  0  0  0  0  0  0  0  0  0  0  0  0  0
++         0  0  0  0  0  0  0  0  0  0  0  0  0  0  0  0  0
++         0  0  0  0  0  0  0  0  0  0  0  0  0  0  0  0  0
%c cc cc ccc ccc cccc cccc cccc cccc ccccc ccccc ccccc ccccc
%c cc cc ccc ccc cccc cccc cccc cccc ccccc ccccc ccccc ccccc
%f  0.0000000  0.000000000  0.00000000000  0.000000000000000
%f  0.0000000  0.000000000  0.00000000000  0.000000000000000
%i    0    0    0    0      0      0      0      0         0
%i    0    0    0    0      0      0      0      0         0
/*      NGA, ST. LOUIS,MO.                                  
/*   EPHEMERIS COMPUTED FROM  1 DAYS OF DATA                
/*   EPOCHA SMOOTHER                                       
/* CCCCCCCCCCCCCCCCCCCCCCCCCCCCCCCCCCCCCCCCCCCCCCCCCCCCCCCCC
*  2014 10 11 11 10  0.00000000
P  1  11686.257279 -22031.539484  -8954.853788     22.346065                    
V  1   9637.855728  -6566.342908  29040.632788      0.004642                    
P  2 -20689.843378  10155.873380 -12451.794314    523.530444                    
V  2   8286.900313 -14685.753805 -25597.951904      0.022065                    
P  4  10521.127727 -22418.685472  -9522.626845     -1.478201                    
V  4  10270.251809  -6632.868161  28166.639012     -0.003974                    
P  5 -23877.124076   3301.419961  11305.046760   -330.621711                    
V  5 -13538.121947  -5539.707383 -26695.305376      0.040573                    
P  6 -16948.960783  -2384.663872 -20320.418700     -1.016724                    
V  6  16481.171741 -19841.150927 -11440.755312      0.025718                    
P  7    297.258554 -18815.124689  18687.789754    401.067437                    
V  7  17345.208835 -16125.194206 -16942.136554      0.040089                    
P  8  10444.139191 -20251.863438  13247.335257     15.865281                    
V  8  13841.007379  -9526.239650 -26474.112904      0.001296                    
P  9  -6908.700787 -25564.788302  -1932.611122     11.762533                    
V  9   3492.841675   1449.267511 -31605.994812     -0.046287                    
P 10 -24676.356883  -9332.942337  -5012.657004   -145.237214                    
V 10   6358.634204  -1541.346931 -30215.951095     -0.014572                    
P 11  11225.822812 -23917.926310   1039.288837   -527.885417                    
V 11   3963.012107   3815.178598  30201.787885     -0.028766                    
P 12 -10631.140478  11752.587737 -21348.402117    238.105409                    
V 12 -25880.312646  -7356.546693   9075.818853      0.026774                    
P 13  -8665.752710 -24446.944201   5235.220040    -49.973519                    
V 13    972.854712  -7193.590767 -31263.935385     -0.036022                    
P 14  14051.238168  17703.455937 -13836.460959    126.485385                    
V 14   2291.848184  17851.323153  24603.117251     -0.036366                    
P 15  -6459.429863  19035.375768  17146.042032   -207.974275                    
V 15  -9845.355973 -19913.477001  18637.561811     -0.022363                    
P 16  23957.674096  -1303.136127  11722.498256   -188.898636                    
V 16  13886.207284   5306.730443 -27308.476094      0.026483                    
P 17 -14248.344298 -18233.219213 -12974.851978   -129.969655                    
V 17  -2575.347851 -16723.204894  25577.179781     -0.026523                    
P 18  13217.370595  15919.264349  17289.131415    350.651280                    
V 18 -21042.157550  -2179.202117  18279.924728      0.025140                    
P 19  10374.475304 -14626.121370  19271.763224   -482.945033                    
V 19   6857.755809  24048.022188  14871.081998     -0.017705                    
P 20   3836.652620 -15616.531170 -21332.744801    243.934456                    
V 20  26454.393300   4127.718724   1822.293290      0.043337                    
P 21   6311.953156  16074.851238  20742.768153   -388.777808                    
V 21 -17526.238589  17990.153542  -9322.352253     -0.020561                    
P 22  23521.306024  10357.562755   7251.703125    276.049201                    
V 22  -9469.722902   1721.275209  28960.294632      0.035710                    
P 23   1185.454726 -23631.072500 -11496.871201    -58.959660                    
V 23   7364.526342  13379.497553 -26868.656431     -0.028504                    
P 24 -14111.837147  21774.469341  -5414.244865    -36.640034                    
V 24  -6791.784138   3182.879616  30700.184660     -0.006236                    
P 25   3466.407423  15492.068526 -21397.341699     18.769065                    
V 25 -26417.445346  -5125.145665  -7889.048138     -0.013130                    
P 26 -13433.506265   6451.467525  21307.118256    -84.738821                    
V 26  -6542.392725 -27871.307739   4454.881442     -0.127988                    
P 27  14636.648268  -3876.093480  21806.881497     21.344191                    
V 27   8537.207088  26366.645301   -974.925255      0.029322                    
P 28 -20053.924659 -13654.876061  11566.159338    390.501284                    
V 28  13531.958117   2385.225842  27638.184972      0.025706                    
P 29   4658.298534  25974.444907  -3161.628783    566.001539                    
V 29  -3410.910018  -3272.359475 -31610.732435      0.024193                    
P 30  -9679.023505 -11858.626818  21704.924765    -71.292745                    
V 30  20119.751499 -18850.767198  -1376.571708     -0.036375                    
P 31  18018.552606    235.179918 -19466.373909    330.670369                    
V 31 -16602.064814  18585.815142 -14718.637638     -0.004772                    
P 32  17831.454334  -7901.701373 -17750.464084   -320.184985                    
V 32  21225.243773   8698.280370  17968.662276      0.087412                    
EOF
